#dP2022  7 22 12  0  0.00000000      96 __u+U ITR00 EXT  IAC
## 2219 475200.00000000   900.00000000 59782 0.5000000000000
+  116   C06C07C08C09C10C11C12C13C14C16C19C20C21C22C23C24C25
+        C26C27C28C29C30C32C33C34C35C36C37C38C39C40C41C42C43
+        C44C45C46E01E02E03E04E05E07E08E09E10E11E12E13E14E15
+        E18E19E21E24E25E26E27E30E31E33E34E36G01G02G03G04G05
+        G06G07G08G09G10G11G12G13G14G15G16G17G18G19G20G21G22
+        G23G24G25G26G27G28G29G30G31G32J02J03R01R02R03R04R05
+        R07R08R09R11R12R13R14R15R17R18R19R20R21R24  0  0  0
++        11 10  8 11  8  8  8  9 13 11  9  9 10  9  7  8  7
++         7 10  8  9 10  7  8  7  7 10  8  8 11 10  8  7  9
++         7  9  9  8  7  7  8  7  7  6  7  8  8  9  6  7  6
++        10  8  7  7  8  8  8  7  6  8  7  8  6  7  8  7  8
++         7  7  6  6  9  6  8  7  6  8  7  6  7  7  8  7  8
++         6  7  6  7  8  8  9  8  7  7 11  9 10  8  8  8  9
++        10  8  8  7  9  7  9  8  7  7  8  8  9  8  0  0  0
%c M  cc GPS ccc cccc cccc cccc cccc ccccc ccccc ccccc ccccc
%c cc cc ccc ccc cccc cccc cccc cccc ccccc ccccc ccccc ccccc
%f  0.0000000  0.000000000  0.00000000000  0.000000000000000
%f  0.0000000  0.000000000  0.00000000000  0.000000000000000
%i    0    0    0    0      0      0      0      0         0
%i    0    0    0    0      0      0      0      0         0
/* IAC                                ULTRA-RAPID PREDICTION
/* S/V CLOCKS ARE ALIGNED TO GNSS TIME                      
/* G:C1WC2W R:C1PC2P E:C1XC5X C:C2IC6I J:C1CC2S             
/* PCV:IGS14_2215 OL/AL:FES2004  NONE     YN ORB:CoN CLK:CoN
*  2022 07 22 18 30  0.00000000
PC06 -18057.195105  33562.106658  17789.758793    449.306854
PC07  -3215.392098  37975.403575  18243.079421   -464.023190
PC08  -5343.319927  20180.053834 -36638.707872    414.163448
PC09 -11522.043019  32285.869624  24584.672653   -919.571955
PC10   2063.143126  40266.711911  13471.308759    116.102437
PC11   3837.366994 -20911.536452  18114.288763    490.171609
PC12  17895.633531 -21232.001986   2687.124790   -570.716014
PC13    153.086747  22746.497979 -35357.592501     31.418344
PC14  -5685.601148 -27015.517353   3859.198514    553.309255
PC16 -20055.803323  33435.321840  15883.087625    143.340978
PC19  11782.701211  24680.080443   5637.565996   -265.829445
PC20     48.693643  25617.284009 -11098.686362   -964.043112
PC21  12577.095099 -11092.468618  22313.875669    -34.709256
PC22  17199.743197   9492.621844  19829.217170   -963.020585
PC23 -26956.213196  -7111.764643  -1219.521258   -949.446857
PC24   5961.487421 -15298.279669 -22564.497133   -967.657012
PC25 -16408.272953 -15433.326338 -16487.346434   -703.826592
PC26  21993.390959  -6980.827000 -15678.546897    705.877526
PC27 -21538.993013  16705.209768   5934.821661    758.251738
PC28 -19821.722955   1145.698400  19611.701042     93.015799
PC29   6602.028664  15737.272550 -22089.929124    585.208381
PC30 -10665.602832  23436.419119 -10747.338490    501.373305
PC32 -12507.300034  11162.846229 -22299.094299    -31.419418
PC33 -11860.950782 -24637.647007  -5514.848511   -227.905260
PC34   9852.757296 -23386.806621  11612.658697   -353.026241
PC35  19305.774305   -614.471674 -20163.368269    377.792380
PC36  15491.154650  15964.823081  16879.175105   -971.837868
PC37 -22982.841416   5664.180679  14816.318960   -920.223441
PC38 -14320.625851  19709.019448 -34420.846399     11.943553
PC39 -22971.421591  33913.710160   9557.727770     -0.095269
PC40  -7214.207922  35176.968740  22248.457842     -0.996743
PC41 -17231.267238  -9953.225398 -19513.261667   -102.098680
PC42    797.459603 -25146.504819  12088.331598   -952.694131
PC43  -5961.395254 -16362.940873  21795.996339      4.409827
PC44  21041.620355 -17298.226417  -6146.195157    732.440255
PC45  27011.661568   6907.955605    932.766932    815.668512
PC46  -4137.861619  15655.201519  22737.099666   -445.892253
PE01   4692.971223  22147.305316  19076.585501   -520.176173
PE02  -4879.295088 -22206.922477 -18954.964423    313.598724
PE03   3131.283450 -29045.938650  -4714.606912   -581.683969
PE04  10028.523301  19442.680911  19949.935918  -1077.076057
PE05  14731.608552 -21764.554191  13619.069793   -160.550080
PE07 -17576.478357   1965.874013 -23729.337621   -689.847493
PE08 -10070.389491 -19224.768651 -20118.738931   -568.151390
PE09  17432.192026  -2003.256655  23841.359128   -596.664990
PE10  23960.253700   3810.780581 -16966.242297   -502.311648
PE11  28293.915111  -3493.148280  -8000.041470   2916.263919
PE12  16156.995350  10279.443628 -22584.571168    -75.708574
PE13 -28125.977883   3085.633115   8687.326358    429.926524
PE14  16953.011836 -17821.911495 -10887.741916  -1771.506690
PE15 -15989.458231 -10268.870455  22691.915794    731.638578
PE18  -9595.299944  28914.222624  -2929.624060  -1183.607825
PE19  -4942.363435  29091.934358   2341.281434  -5020.153269
PE21 -12526.227893  11086.673661  24425.118792   -747.421950
PE24  23998.050903   8086.294157 -15319.182902   -739.205178
PE25  12763.025928 -10840.712903 -24397.189298   -581.963688
PE26 -23069.217706  14885.193019 -11078.141114  -1407.237458
PE27 -23787.046624  -7044.215800  16158.254710   -350.824690
PE30 -20382.862327 -21334.051590  -2422.781981   -693.368565
PE31  20934.045209  20871.502879   1563.055440   -500.363040
PE33  -5505.689487  17492.833128 -23238.269564   -454.474601
PE34   5260.586734 -17472.994787  23290.086895   -487.154201
PE36  23662.354021 -14508.990210  10283.181007   -405.907230
PG01   5046.048752  14021.402318 -22313.607076    316.362415
PG02  15625.762074 -15607.365121  15528.298685   -650.900899
PG03  10660.630915  22319.278707  -9947.791303   -313.929485
PG04    404.582789  23460.690478  12364.412269   -142.744553
PG05   1237.376555 -18065.323941  19209.202127    -90.097841
PG06  25803.853203  -6239.915610   1778.760657    395.618882
PG07  20484.263198   7540.737351  15878.683120    318.272125
PG08  -4451.573159  25547.260035  -4829.905257    -77.301360
PG09   9459.052571  15485.836720  19314.921134   -316.372692
PG10 -20361.392026  -7058.106243 -15575.362154   -501.209371
PG11  19302.567415 -12275.436915  13468.837896    -10.415517
PG12  -6940.508229 -22808.773582 -12083.795619   -250.478293
PG13  13224.926586 -22762.150830   2528.724324    353.477410
PG14  20486.669487   8663.710997 -14587.842470   -111.442988
PG15   1220.658187 -25940.338187  -5135.959233    -43.352597
PG16  -8053.796438  13500.058577  21061.984241   -516.782556
PG17  15718.404319  -1202.877168 -20952.441223    639.869362
PG18 -20396.187832  -7086.080353  15540.112002    105.399011
PG19  17527.631042 -10006.981990 -17392.541880    187.166913
PG20  12024.410525 -10150.193457  21382.650291    501.053299
PG21  -5014.938666  15906.335792 -19869.462577    160.987289
PG22 -17057.481665  13247.878015 -14922.721223    296.796610
PG23 -20693.942146 -15263.299559  -6900.233602    -34.038267
PG24  -1252.295414 -16087.047794 -21367.015200    190.008766
PG25 -17395.084571 -20261.234675   -768.442157    352.192380
PG26 -15728.049106   5644.268273  20616.914061    219.669780
PG27 -12583.427639  21911.909545   7286.247383    220.924030
PG28  17101.418080    391.118930 -19745.492787    336.530373
PG29  -7739.625544 -15800.776635  19820.956143   -535.964552
PG30  25818.023585    363.913147   6864.168574   -534.541538
PG31 -25445.884912   7375.204585   3989.219723   -186.761937
PG32 -16391.717833   4382.105461 -20236.706296   -183.206886
PJ02 -26642.391468  20987.396420  30071.289461     -2.027695
PJ03 -34041.578107  24627.568042    243.872932     -0.226435
PR01   6025.440901 -17488.257385  17558.767357     11.898497
PR02  -2762.975256 -25391.874964     48.970721    524.875118
PR03  -9689.634063 -17261.451821 -16077.098269     60.654513
PR04 -10806.299702    282.228010 -23076.570912    151.521328
PR05  -6202.329833  17630.809076 -17336.939943     96.650293
PR07   9896.046656  16519.571778  16740.778145     38.228113
PR08  10936.117461   -534.373259  23094.415730    -66.354224
PR09   7784.930593  13833.264021  20015.409239     67.167012
PR11  23074.865543   4396.894974  -9950.870622     32.569417
PR12  10790.395131  -6884.682377 -22030.511261     19.435360
PR13  -6328.860117 -13377.157519 -20783.584039    -24.889039
PR14 -21345.829894 -12341.584811  -6475.475036     24.787932
PR15 -22746.253678  -4020.036658  10839.558516     94.560789
PR17 -10802.171249  -4795.932684  22611.840957    545.770092
PR18 -20477.920587   7557.828763  13167.868793     33.924818
PR19 -20447.824059  15120.188763  -2054.332392   -197.276393
PR20  -6631.035099  15008.435493 -19515.997953    -75.117919
PR21  11910.263521   3709.054836 -22250.754488   -319.499805
PR24   5374.962919 -15273.073402  19712.919822    104.912513
EOF
